ELFIN-A                 
1 43617U 18070E   21101.75525803  .00007122  00000-0  15543-3 0  9990
2 43617  93.0248 279.1205 0011368 254.6533 105.3468 15.44163132144491
CUBEBEL-1 (BSUSAT-1)    
1 43666U 18083E   21101.86207265  .00001488  00000-0  73924-4 0  9996
2 43666  97.4624 131.0534 0015957  46.5886  79.5787 15.19122155135903
CICERO 10               
1 43690U 18088A   21101.87182290  .00001538  00000-0  67457-4 0  9999
2 43690  85.0378 241.5704 0012542 298.9477  61.0506 15.21025793134100
IRVINE01                
1 43693U 18088D   21101.90097354  .00003679  00000-0  14555-3 0  9990
2 43693  85.0346 239.1571 0014667 269.8185  90.1378 15.24997487134297
PROXIMA I               
1 43694U 18088E   21101.85160955  .00001392  00000-0  57724-4 0  9999
2 43694  85.0322 239.3628 0016544 264.7291  95.2063 15.22754367134243
PROXIMA II              
1 43696U 18088G   21101.84977835  .00001395  00000-0  57855-4 0  9991
2 43696  85.0324 239.3717 0016594 264.6738  95.2611 15.22753236134238
FACSAT-1                
1 43721U 18096C   21101.83521034  .00002138  00000-0  79411-4 0  9992
2 43721  97.3887 179.4894 0017930 143.1376 352.7908 15.28521768131945
CENTAURI-2              
1 43722U 18096D   21101.76235372  .00003455  00000-0  12287-3 0  9992
2 43722  97.3905 180.0827 0017829 142.8537 217.3941 15.29526962131960
INNOSAT-2               
1 43738U 18096V   21101.84258304  .00004865  00000-0  15484-3 0  9996
2 43738  97.3950 183.5503 0022811 145.5708 346.8739 15.32813486132196
SIRION PATHFINDER-2     
1 43759U 18099B   21101.88537443  .00000570  00000-0  56634-4 0  9992
2 43759  97.6690 173.9022 0012595 265.3531  94.6251 14.95471782128532
CORVUS BC4              
1 43767U 18099K   21101.93836012  .00000606  00000-0  60722-4 0  9994
2 43767  97.6664 173.0269 0010151 270.1563  89.8494 14.94899374128491
MOVE-II                 
1 43780U 18099Y   21101.92096606  .00000425  00000-0  43200-4 0  9996
2 43780  97.6707 174.0248 0011994 277.0477  82.9380 14.95818306128527
SPACEBEE-7              
1 43816U 18099BL  21101.67436843  .00000990  00000-0  93168-4 0  9994
2 43816  97.6724 174.3451 0011773 259.3632 100.6264 14.96040171128073
SPACEBEE-5              
1 43817U 18099BM  21101.93250606  .00001261  00000-0  11413-3 0  9999
2 43817  97.6801 175.6684 0011724 256.1877 103.8040 14.97129289128159
SPACEBEE-6              
1 43818U 18099BN  21101.72133408  .00000536  00000-0  52355-4 0  9992
2 43818  97.6747 174.7196 0011922 259.1939 100.7941 14.96371503128242
SHIELDS 1               
1 43850U 18104B   21101.91280030  .00000640  00000-0  26297-4 0  9992
2 43850  85.0301 337.9772 0016749  58.0925 302.1944 15.21788726128857
STF-1                   
1 43852U 18104D   21101.90271015  .00001444  00000-0  60919-4 0  9998
2 43852  85.0341 338.6502 0016537  70.6129 289.6898 15.22211318128837
ZACUBE-2                
1 43907U 18111AH  21101.93773796  .00000751  00000-0  32649-4 0  9992
2 43907  97.2401 358.2960 0021464 164.2719 326.3904 15.25074962127499
LUME 1                  
1 43908U 18111AJ  21101.77786696  .00001582  00000-0  63937-4 0  9995
2 43908  97.2403 358.6055 0021002 162.9670 197.2278 15.25989648127507
AOBA VELOX-IV           
1 43940U 19003J   21101.85907644  .00002759  00000-0  10707-3 0  9992
2 43940  97.1859 148.4476 0021193 243.4139 116.4928 15.26723925124142
CATSAT-2                
1 44029U 98067PV  21100.60722251  .01510001  11835-4  80947-3 0  9999
2 44029  51.6354 225.1337 0009275 322.1018  37.9347 16.19059253125392
UNITE                   
1 44031U 98067PX  21101.93826989  .00032296  00000-0  23203-3 0  9996
2 44031  51.6364 247.7699 0000509 111.8502 248.2551 15.73323727125189
CATSAT-1                
1 44033U 98067PZ  21100.36402953  .01227344  11294-2  78054-3 0  9999
2 44033  51.6361 226.5053 0008740 319.6887  40.3481 16.17105597125260
RAAVANA-1               
1 44329U 98067QE  21101.82997831  .00034975  00000-0  27535-3 0  9997
2 44329  51.6343 267.4015 0003232  23.0880 337.0262 15.71110260103665
UGUISU                  
1 44330U 98067QF  21101.93637903  .00035973  00000-0  28693-3 0  9997
2 44330  51.6317 267.2857 0003234  24.3455 335.7694 15.70782980103650
NEPALISAT-1             
1 44331U 98067QG  21101.95007464  .00035851  00000-0  28257-3 0  9994
2 44331  51.6321 266.6260 0003186  27.9918 332.1250 15.71070214103678
SPOOQY-1                
1 44332U 98067QH  21101.74537781  .00036504  00000-0  29493-3 0  9991
2 44332  51.6329 268.2915 0002613  30.0392 330.0755 15.70468504103597
SPACEBEE-9              
1 44370U 19037F   21100.74056201  .00022995  00000-0  36028-3 0  9996
2 44370  45.0010 244.1431 0008134 195.0969 164.9682 15.53336192100649
SPACEBEE-8              
1 44371U 19037G   21101.74770135  .00388236  00000-0  13944-2 0  9991
2 44371  44.9962 205.8042 0014049 347.8812  12.1754 15.86867028101189
MOVE-IIB                
1 44398U 19038N   21101.93362827  .00001562  00000-0  90680-4 0  9995
2 44398  97.5760  66.2729 0024288 174.9696 185.1783 15.13397383 97701
SONATE                  
1 44400U 19038Q   21101.89245313  .00000708  00000-0  44312-4 0  9996
2 44400  97.5827  66.1572 0024965 175.1831 184.9644 15.12431557 97670
LUCKY-7                 
1 44406U 19038W   21101.84723517  .00000918  00000-0  55737-4 0  9990
2 44406  97.5833  66.3294 0024340 174.2638 185.8876 15.12805104 97678
BEESAT 9                
1 44412U 19038AC  21101.87997546  .00001023  00000-0  61295-4 0  9999
2 44412  97.5816  66.3702 0022136 179.2032 180.9238 15.13082858 97384
JAISAT-1                
1 44419U 19038F   21101.87102725  .00001045  00000-0  61704-4 0  9992
2 44419  97.5821  66.8558 0021060 177.3440 182.7907 15.13567265 97729
KRAKSAT                 
1 44427U 98067QM  21101.76538171  .00018288  00000-0  19251-3 0  9992
2 44427  51.6393 278.8417 0002130 347.9781 131.7787 15.64346121101023
VCC A                   
1 44428U 98067QN  21101.87174500  .00032198  00000-0  27141-3 0  9990
2 44428  51.6358 270.7572 0001981 338.2249  21.8663 15.69508143101147
ENTRYSAT                
1 44429U 98067QP  21101.77469875  .00060153  00000-0  39409-3 0  9994
2 44429  51.6306 264.7149 0002621 316.9750  43.1044 15.75180437101213
VCC C                   
1 44430U 98067QQ  21101.85906437  .00161080  00000-0  54661-3 0  9993
2 44430  51.6265 254.6842 0006112 306.7807  53.2637 15.88869232100182
VCC B                   
1 44431U 98067QR  21101.71842395  .00036419  00000-0  30180-3 0  9998
2 44431  51.6324 271.1573 0002095 337.7468  22.3438 15.69858352101061
DUCHIFAT-3              
1 44854U 19089C   21101.47031036  .00000402  00000-0  38582-4 0  9997
2 44854  36.9652 136.7349 0009260 315.7808  44.2210 14.99413728 73045
EYESAT-NANO             
1 44877U 19092E   21101.77250944  .00001576  00000-0  81157-4 0  9999
2 44877  97.4600 286.3694 0014674  65.0708 295.2049 15.17778104 72825
ORBITAL FACTORY 2 (OF-2)
1 45113U 19071C   21101.89275548  .00002323  00000-0  77807-4 0  9998
2 45113  51.6440   0.1279 0012693  55.4480 304.7699 15.35265920 66943
M2 PATHFINDER           
1 45727U 20037E   21101.72657627  .00000881  00000-0  93780-4 0  9992
2 45727  97.7110 281.0018 0013560  34.1233 326.0829 14.91352848 42475
NETSAT-4                
1 46504U 20068U   21101.81779609  .00000456  00000-0  39353-4 0  9999
2 46504  97.6877  39.2503 0010077 358.1564   1.9621 15.02055831 29239
NETSAT-3                
1 46505U 20068V   21101.82284480  .00000580  00000-0  48816-4 0  9991
2 46505  97.6870  39.2317 0008641 358.8556   1.2646 15.02016712 29244
NETSAT-1                
1 46506U 20068W   21101.82791150  .00000830  00000-0  68009-4 0  9993
2 46506  97.6856  39.2135 0006938 356.7875   3.3303 15.01981009 29247
NETSAT-2                
1 46507U 20068X   21101.83046291  .00000977  00000-0  79278-4 0  9996
2 46507  97.6836  39.2139 0006753 353.0871   7.0259 15.01956458 29196
SPOC                    
1 46921U 98067RR  21101.89125539  .00007121  00000-0  11902-3 0  9996
2 46921  51.6420 307.6591 0002399 178.3588 181.7411 15.53088310 24515
BOBCAT-1                
1 46922U 98067RS  21101.83839598  .00013608  00000-0  21172-3 0  9995
2 46922  51.6426 307.3162 0002141 182.9661 177.1318 15.54222436 24471
NEUTRON-1               
1 46923U 98067RT  21101.83718240  .00009040  00000-0  14969-3 0  9997
2 46923  51.6419 308.0460 0002168 190.2103 169.8844 15.52972456 24536
1998-067RU              
1 46924U 98067RU  21101.93668646  .00017458  00000-0  24878-3 0  9995
2 46924  51.6402 305.7078 0002166 222.4074 137.6751 15.56410217 24548
DESCENT                 
1 46927U 98067RX  21101.84114652  .00008832  00000-0  14653-3 0  9997
2 46927  51.6419 308.0706 0002106 212.3540 147.7321 15.52951421 24440
WARP-01                 
1 47924U 98067SA  21101.87471900  .00008360  00000-0  15359-3 0  9990
2 47924  51.6425 310.5322 0005144 212.5646 147.5026 15.50129927  4467
RSP-01                  
1 47925U 98067SB  21101.87223597  .00007296  00000-0  13468-3 0  9994
2 47925  51.6430 310.5176 0002810 145.3355 214.7818 15.50217222  4448
TAUSAT-1                
1 47926U 98067SC  21101.86718420  .00009000  00000-0  16226-3 0  9998
2 47926  51.6430 310.4841 0004087 148.2007 211.9230 15.50563067  4438
TSURU                   
1 47927U 98067SD  21101.87240545  .00006451  00000-0  12013-3 0  9995
2 47927  51.6428 310.5188 0002805 142.6210 217.4975 15.50186214  4444
STARS-EC                
1 47928U 98067SE  21101.87324821  .00006017  00000-0  11281-3 0  9990
2 47928  51.6426 310.5226 0005882 219.6106 140.4454 15.50126392  4429
MAYA-2                  
1 47929U 98067SF  21101.93626533  .00006641  00000-0  12329-3 0  9990
2 47929  51.6430 310.1953 0002950 141.0125 219.1077 15.50219223  4410
HIROGARI (OPUSAT-II)    
1 47930U 98067SG  21101.87195721  .00009685  00000-0  17596-3 0  9997
2 47930  51.6432 310.5159 0002979 139.2882 220.8331 15.50242433  4440
